STARLINK-32101          
1 60447U 24144Y   25316.25671014  .00000280  00000+0  21599-4 0  9998
2 60447  53.1621  42.3096 0001418  81.1923 278.9239 15.30200694 71337
STARLINK-31844          
1 60583U 24150A   25315.52215477  .00002085  00000+0  82492-4 0  9996
2 60583  53.1571 135.6022 0001459  81.0209 279.0957 15.30205496 69957
STARLINK-32204          
1 60584U 24150B   25315.94044677  .00012739  00000+0  44146-3 0  9995
2 60584  53.1557 133.9457 0000841  98.8374 261.2722 15.30201733 70010
STARLINK-32130          
1 60585U 24150C   25316.22490868 -.00000157  00000+0  68236-5 0  9995
2 60585  53.1642 132.8775 0001098  84.0520 276.0606 15.30193671 69971
STARLINK-32173          
1 60586U 24150D   25315.92776894  .00003506  00000+0  13047-3 0  9996
2 60586  53.1593 133.8661 0002208 114.2492 245.8739 15.30195370 70016
STARLINK-31911          
1 60587U 24150E   25316.21541581  .00001744  00000+0  70972-4 0  9996
2 60587  53.1580 132.8191 0000665  27.2671 332.8365 15.30199424 69976
STARLINK-31994          
1 60588U 24150F   25315.59380221  .00001576  00000+0  65316-4 0  9998
2 60588  53.1583 135.3332 0001069  85.2707 274.8416 15.30201923 69888
STARLINK-32169          
1 60589U 24150G   25315.90994830  .00000082  00000+0  14900-4 0  9995
2 60589  53.1577 134.4648 0000770  68.8620 291.2463 15.30190309 70007
STARLINK-32209          
1 60590U 24150H   25315.93304335 -.00001010  00000+0 -21969-4 0  9992
2 60590  53.1597 133.8980 0001039  82.8247 277.2872 15.30201488 70013
STARLINK-32170          
1 60591U 24150J   25315.77403763 -.00000546  00000+0 -62895-5 0  9997
2 60591  53.1610 135.0387 0001475  84.9175 275.1994 15.30195593 69909
STARLINK-31497          
1 60592U 24150K   25315.88144927 -.00000057  00000+0  10187-4 0  9996
2 60592  53.1597 134.2884 0000821  88.9454 271.1640 15.30192999 70009
STARLINK-32161          
1 60593U 24150L   25315.86561762  .00000411  00000+0  25993-4 0  9999
2 60593  53.1619 134.1872 0001076 111.1144 248.9972 15.30197718 69922
STARLINK-32210          
1 60594U 24150M   25315.91722179 -.00001468  00000+0 -37453-4 0  9996
2 60594  53.1576 133.7937 0001495  94.2375 265.8797 15.30191336 70019
STARLINK-32202          
1 60595U 24150N   25316.22174340  .00000842  00000+0  40549-4 0  9996
2 60595  53.1587 132.8567 0001595  92.0710 268.0473 15.30196519 70059
STARLINK-31930          
1 60596U 24150P   25315.92355342 -.00000968  00000+0 -20549-4 0  9995
2 60596  53.1584 133.8372 0001843  92.6775 267.4436 15.30189806 69933
STARLINK-32162          
1 60597U 24150Q   25316.23440308 -.00000048  00000+0  10520-4 0  9994
2 60597  53.1616 132.9350 0001335  83.1876 276.9277 15.30198397 70057
