[{"OBJECT_NAME":"STARLINK-32101","OBJECT_ID":"2024-144Y","EPOCH":"2025-11-12T06:09:39.756096","MEAN_MOTION":15.30200694,"ECCENTRICITY":0.00014187,"INCLINATION":53.1621,"RA_OF_ASC_NODE":42.3096,"ARG_OF_PERICENTER":81.1923,"MEAN_ANOMALY":278.9239,"EPHEMERIS_TYPE":0,"CLASSIFICATION_TYPE":"U","NORAD_CAT_ID":60447,"ELEMENT_SET_NO":999,"REV_AT_EPOCH":7133,"BSTAR":2.1599306e-5,"MEAN_MOTION_DOT":2.8e-6,"MEAN_MOTION_DDOT":0},{"OBJECT_NAME":"STARLINK-31844","OBJECT_ID":"2024-150A","EPOCH":"2025-11-11T12:31:54.172128","MEAN_MOTION":15.30205496,"ECCENTRICITY":0.00014598,"INCLINATION":53.1571,"RA_OF_ASC_NODE":135.6022,"ARG_OF_PERICENTER":81.0209,"MEAN_ANOMALY":279.0957,"EPHEMERIS_TYPE":0,"CLASSIFICATION_TYPE":"U","NORAD_CAT_ID":60583,"ELEMENT_SET_NO":999,"REV_AT_EPOCH":6995,"BSTAR":8.2491629e-5,"MEAN_MOTION_DOT":2.085e-5,"MEAN_MOTION_DDOT":0},{"OBJECT_NAME":"STARLINK-32204","OBJECT_ID":"2024-150B","EPOCH":"2025-11-11T22:34:14.600928","MEAN_MOTION":15.30201733,"ECCENTRICITY":8.411e-5,"INCLINATION":53.1557,"RA_OF_ASC_NODE":133.9457,"ARG_OF_PERICENTER":98.8374,"MEAN_ANOMALY":261.2722,"EPHEMERIS_TYPE":0,"CLASSIFICATION_TYPE":"U","NORAD_CAT_ID":60584,"ELEMENT_SET_NO":999,"REV_AT_EPOCH":7001,"BSTAR":0.00044145636,"MEAN_MOTION_DOT":0.00012739,"MEAN_MOTION_DDOT":0},{"OBJECT_NAME":"STARLINK-32130","OBJECT_ID":"2024-150C","EPOCH":"2025-11-12T05:23:52.109952","MEAN_MOTION":15.30193671,"ECCENTRICITY":0.0001098,"INCLINATION":53.1642,"RA_OF_ASC_NODE":132.8775,"ARG_OF_PERICENTER":84.052,"MEAN_ANOMALY":276.0606,"EPHEMERIS_TYPE":0,"CLASSIFICATION_TYPE":"U","NORAD_CAT_ID":60585,"ELEMENT_SET_NO":999,"REV_AT_EPOCH":6997,"BSTAR":6.823632e-6,"MEAN_MOTION_DOT":-1.57e-6,"MEAN_MOTION_DDOT":0},{"OBJECT_NAME":"STARLINK-32173","OBJECT_ID":"2024-150D","EPOCH":"2025-11-11T22:15:59.236416","MEAN_MOTION":15.3019537,"ECCENTRICITY":0.00022083,"INCLINATION":53.1593,"RA_OF_ASC_NODE":133.8661,"ARG_OF_PERICENTER":114.2492,"MEAN_ANOMALY":245.8739,"EPHEMERIS_TYPE":0,"CLASSIFICATION_TYPE":"U","NORAD_CAT_ID":60586,"ELEMENT_SET_NO":999,"REV_AT_EPOCH":7001,"BSTAR":0.00013047128,"MEAN_MOTION_DOT":3.506e-5,"MEAN_MOTION_DDOT":0},{"OBJECT_NAME":"STARLINK-31911","OBJECT_ID":"2024-150E","EPOCH":"2025-11-12T05:10:11.925984","MEAN_MOTION":15.30199424,"ECCENTRICITY":6.653e-5,"INCLINATION":53.158,"RA_OF_ASC_NODE":132.8191,"ARG_OF_PERICENTER":27.2671,"MEAN_ANOMALY":332.8365,"EPHEMERIS_TYPE":0,"CLASSIFICATION_TYPE":"U","NORAD_CAT_ID":60587,"ELEMENT_SET_NO":999,"REV_AT_EPOCH":6997,"BSTAR":7.0972403e-5,"MEAN_MOTION_DOT":1.744e-5,"MEAN_MOTION_DDOT":0},{"OBJECT_NAME":"STARLINK-31994","OBJECT_ID":"2024-150F","EPOCH":"2025-11-11T14:15:04.510944","MEAN_MOTION":15.30201923,"ECCENTRICITY":0.00010694,"INCLINATION":53.1583,"RA_OF_ASC_NODE":135.3332,"ARG_OF_PERICENTER":85.2707,"MEAN_ANOMALY":274.8416,"EPHEMERIS_TYPE":0,"CLASSIFICATION_TYPE":"U","NORAD_CAT_ID":60588,"ELEMENT_SET_NO":999,"REV_AT_EPOCH":6988,"BSTAR":6.531551e-5,"MEAN_MOTION_DOT":1.576e-5,"MEAN_MOTION_DDOT":0},{"OBJECT_NAME":"STARLINK-32169","OBJECT_ID":"2024-150G","EPOCH":"2025-11-11T21:50:19.533120","MEAN_MOTION":15.30190309,"ECCENTRICITY":7.703e-5,"INCLINATION":53.1577,"RA_OF_ASC_NODE":134.4648,"ARG_OF_PERICENTER":68.862,"MEAN_ANOMALY":291.2463,"EPHEMERIS_TYPE":0,"CLASSIFICATION_TYPE":"U","NORAD_CAT_ID":60589,"ELEMENT_SET_NO":999,"REV_AT_EPOCH":7000,"BSTAR":1.4899823e-5,"MEAN_MOTION_DOT":8.2e-7,"MEAN_MOTION_DDOT":0},{"OBJECT_NAME":"STARLINK-32209","OBJECT_ID":"2024-150H","EPOCH":"2025-11-11T22:23:34.945440","MEAN_MOTION":15.30201488,"ECCENTRICITY":0.00010399,"INCLINATION":53.1597,"RA_OF_ASC_NODE":133.898,"ARG_OF_PERICENTER":82.8247,"MEAN_ANOMALY":277.2872,"EPHEMERIS_TYPE":0,"CLASSIFICATION_TYPE":"U","NORAD_CAT_ID":60590,"ELEMENT_SET_NO":999,"REV_AT_EPOCH":7001,"BSTAR":-2.1968633e-5,"MEAN_MOTION_DOT":-1.01e-5,"MEAN_MOTION_DDOT":0},{"OBJECT_NAME":"STARLINK-32170","OBJECT_ID":"2024-150J","EPOCH":"2025-11-11T18:34:36.851232","MEAN_MOTION":15.30195593,"ECCENTRICITY":0.00014757,"INCLINATION":53.161,"RA_OF_ASC_NODE":135.0387,"ARG_OF_PERICENTER":84.9175,"MEAN_ANOMALY":275.1994,"EPHEMERIS_TYPE":0,"CLASSIFICATION_TYPE":"U","NORAD_CAT_ID":60591,"ELEMENT_SET_NO":999,"REV_AT_EPOCH":6990,"BSTAR":-6.289499e-6,"MEAN_MOTION_DOT":-5.46e-6,"MEAN_MOTION_DDOT":0},{"OBJECT_NAME":"STARLINK-31497","OBJECT_ID":"2024-150K","EPOCH":"2025-11-11T21:09:17.216928","MEAN_MOTION":15.30192999,"ECCENTRICITY":8.211e-5,"INCLINATION":53.1597,"RA_OF_ASC_NODE":134.2884,"ARG_OF_PERICENTER":88.9454,"MEAN_ANOMALY":271.164,"EPHEMERIS_TYPE":0,"CLASSIFICATION_TYPE":"U","NORAD_CAT_ID":60592,"ELEMENT_SET_NO":999,"REV_AT_EPOCH":7000,"BSTAR":1.0186594e-5,"MEAN_MOTION_DOT":-5.7e-7,"MEAN_MOTION_DDOT":0},{"OBJECT_NAME":"STARLINK-32161","OBJECT_ID":"2024-150L","EPOCH":"2025-11-11T20:46:29.362368","MEAN_MOTION":15.30197718,"ECCENTRICITY":0.00010765,"INCLINATION":53.1619,"RA_OF_ASC_NODE":134.1872,"ARG_OF_PERICENTER":111.1144,"MEAN_ANOMALY":248.9972,"EPHEMERIS_TYPE":0,"CLASSIFICATION_TYPE":"U","NORAD_CAT_ID":60593,"ELEMENT_SET_NO":999,"REV_AT_EPOCH":6992,"BSTAR":2.5993183e-5,"MEAN_MOTION_DOT":4.11e-6,"MEAN_MOTION_DDOT":0},{"OBJECT_NAME":"STARLINK-32210","OBJECT_ID":"2024-150M","EPOCH":"2025-11-11T22:00:47.962656","MEAN_MOTION":15.30191336,"ECCENTRICITY":0.00014954,"INCLINATION":53.1576,"RA_OF_ASC_NODE":133.7937,"ARG_OF_PERICENTER":94.2375,"MEAN_ANOMALY":265.8797,"EPHEMERIS_TYPE":0,"CLASSIFICATION_TYPE":"U","NORAD_CAT_ID":60594,"ELEMENT_SET_NO":999,"REV_AT_EPOCH":7001,"BSTAR":-3.7452794e-5,"MEAN_MOTION_DOT":-1.468e-5,"MEAN_MOTION_DDOT":0},{"OBJECT_NAME":"STARLINK-32202","OBJECT_ID":"2024-150N","EPOCH":"2025-11-12T05:19:18.629760","MEAN_MOTION":15.30196519,"ECCENTRICITY":0.00015954,"INCLINATION":53.1587,"RA_OF_ASC_NODE":132.8567,"ARG_OF_PERICENTER":92.071,"MEAN_ANOMALY":268.0473,"EPHEMERIS_TYPE":0,"CLASSIFICATION_TYPE":"U","NORAD_CAT_ID":60595,"ELEMENT_SET_NO":999,"REV_AT_EPOCH":7005,"BSTAR":4.0548759e-5,"MEAN_MOTION_DOT":8.42e-6,"MEAN_MOTION_DDOT":0},{"OBJECT_NAME":"STARLINK-31930","OBJECT_ID":"2024-150P","EPOCH":"2025-11-11T22:09:55.015488","MEAN_MOTION":15.30189806,"ECCENTRICITY":0.00018431,"INCLINATION":53.1584,"RA_OF_ASC_NODE":133.8372,"ARG_OF_PERICENTER":92.6775,"MEAN_ANOMALY":267.4436,"EPHEMERIS_TYPE":0,"CLASSIFICATION_TYPE":"U","NORAD_CAT_ID":60596,"ELEMENT_SET_NO":999,"REV_AT_EPOCH":6993,"BSTAR":-2.0549485e-5,"MEAN_MOTION_DOT":-9.68e-6,"MEAN_MOTION_DDOT":0},{"OBJECT_NAME":"STARLINK-32162","OBJECT_ID":"2024-150Q","EPOCH":"2025-11-12T05:37:32.426112","MEAN_MOTION":15.30198397,"ECCENTRICITY":0.00013352,"INCLINATION":53.1616,"RA_OF_ASC_NODE":132.935,"ARG_OF_PERICENTER":83.1876,"MEAN_ANOMALY":276.9277,"EPHEMERIS_TYPE":0,"CLASSIFICATION_TYPE":"U","NORAD_CAT_ID":60597,"ELEMENT_SET_NO":999,"REV_AT_EPOCH":7005,"BSTAR":1.0519758e-5,"MEAN_MOTION_DOT":-4.8e-7,"MEAN_MOTION_DDOT":0}]
